{"fetched_at":"2026-03-29T16:36:15Z","count":15609,"tles":[{"name":"STARLINK-6150","line1":"1 57119U 23090U   26087.62384958 -.00000469  00000+0 -19671-4 0  9993","line2":"2 57119  43.0027 171.5845 0001291 268.9379  91.1316 15.02543034153264","category":"Starlink"}]}