{
  "norad_id": 57119,
  "name": "STARLINK-6150",
  "history": [
    {
      "epoch": "2026-03-28T14:58:20.603712Z",
      "apogee_km": 559.9534746564004,
      "perigee_km": 558.162290937661,
      "latitude_deg": 4.092793237147867e-05,
      "longitude_deg": 120.95706482224712,
      "height_km": 558.8538677974183,
      "semi_major_axis_km": 6937.19488279703,
      "eccentricity": 0.0001291,
      "inclination_deg": 43.0027,
      "raan_deg": 171.5845,
      "arg_perigee_deg": 268.9379,
      "mean_anomaly_deg": 91.1316,
      "mean_motion_rev_day": 15.02543034
    }
  ]
}